{
    "links": {
        "self": "http://www.neowsapp.com/rest/v1/neo/3780704?api_key=iIulBulltgU6a56xZRHN4H3l9WmuAYTsLGpBGhQ2"
    },
    "id": "3780704",
    "neo_reference_id": "3780704",
    "name": "(2017 QL)",
    "designation": "2017 QL",
    "nasa_jpl_url": "http://ssd.jpl.nasa.gov/sbdb.cgi?sstr=3780704",
    "absolute_magnitude_h": 23.8,
    "estimated_diameter": {
        "kilometers": {
            "estimated_diameter_min": 0.046190746,
            "estimated_diameter_max": 0.1032856481
        },
        "meters": {
            "estimated_diameter_min": 46.1907460282,
            "estimated_diameter_max": 103.2856480504
        },
        "miles": {
            "estimated_diameter_min": 0.0287015901,
            "estimated_diameter_max": 0.0641787064
        },
        "feet": {
            "estimated_diameter_min": 151.544447199,
            "estimated_diameter_max": 338.8636855496
        }
    },
    "is_potentially_hazardous_asteroid": false,
    "close_approach_data": [
        {
            "close_approach_date": "2017-08-22",
            "close_approach_date_full": "2017-Aug-22 00:58",
            "epoch_date_close_approach": 1503363480000,
            "relative_velocity": {
                "kilometers_per_second": "19.9393424783",
                "kilometers_per_hour": "71781.6329218015",
                "miles_per_hour": "44602.3151896605"
            },
            "miss_distance": {
                "astronomical": "0.1072522495",
                "lunar": "41.7211250555",
                "kilometers": "16044708.077908565",
                "miles": "9969719.297585597"
            },
            "orbiting_body": "Earth"
        }
    ],
    "orbital_data": {
        "orbit_id": "1",
        "orbit_determination_date": "2017-08-18 15:42:06",
        "first_observation_date": "2017-08-16",
        "last_observation_date": "2017-08-18",
        "data_arc_in_days": 2,
        "observations_used": 15,
        "orbit_uncertainty": "9",
        "minimum_orbit_intersection": ".0461216",
        "jupiter_tisserand_invariant": "4.431",
        "epoch_osculation": "2457982.5",
        "eccentricity": ".4861181542629378",
        "semi_major_axis": "1.421350712918644",
        "inclination": "32.55742321414887",
        "ascending_node_longitude": "141.953574489302",
        "orbital_period": "618.9424994475773",
        "perihelion_distance": ".730406327794322",
        "perihelion_argument": "274.1160713058014",
        "aphelion_distance": "2.112295098042966",
        "perihelion_time": "2458050.572798279174",
        "mean_anomaly": "320.4063262704127",
        "mean_motion": ".5816372285330375",
        "equinox": "J2000",
        "orbit_class": {
            "orbit_class_type": "APO",
            "orbit_class_description": "Near-Earth asteroid orbits which cross the Earth’s orbit similar to that of 1862 Apollo",
            "orbit_class_range": "a (semi-major axis) > 1.0 AU; q (perihelion) < 1.017 AU"
        }
    },
    "is_sentry_object": false
}